NUSAT-1 (FRESCO)        
1 41557U 16033B   22133.82615758  .00012203  00000+0  37527-3 0  9992
2 41557  97.3851 231.4899 0012670 138.1617  14.7040 15.33745688332077
BEESAT-4                
1 41619U 16040W   22133.14003581  .00015434  00000+0  53229-3 0  9995
2 41619  97.2204 184.7306 0008505 232.7203 127.3263 15.30040429315329
CAS-2T & KS-1Q          
1 41847U 16066G   22133.42646981  .00000473  00000+0  82040-4 0  9995
2 41847  98.5528 198.1269 0363166 314.7936  42.4238 14.38536939289314
NAYIF-1 (EO-88)         
1 42017U 17008BX  22133.14596079  .00017592  00000+0  54658-3 0  9996
2 42017  97.2717 199.7960 0005040  32.5019 327.6533 15.33398375291669
ZHUHAI-1 02 (CAS-4B)    
1 42759U 17034B   22133.83851764  .00002686  00000+0  16816-3 0  9991
2 42759  43.0168 163.4604 0007623  64.7645 104.2747 15.11627131271110
ZHUHAI-1 01 (CAS-4A)    
1 42761U 17034D   22133.81026777  .00002823  00000+0  17565-3 0  9995
2 42761  43.0166 162.4284 0008066  66.2831 102.4520 15.11719375271111
MAX VALIER SAT          
1 42778U 17036P   22133.38933471  .00009969  00000+0  38545-3 0  9994
2 42778  97.2092 175.7025 0013132  92.8942 267.3800 15.26333266271553
RADFXSAT (FOX-1B)       
1 43017U 17073E   22133.51577779  .00004284  00000+0  32773-3 0  9994
2 43017  97.6794  29.1319 0248135 302.4844  55.2601 14.81167001241940
FOX-1D (AO-92)          
1 43137U 18004AC  22133.47687794  .00011335  00000+0  40897-3 0  9997
2 43137  97.3700 208.9631 0009399 123.3605 236.8536 15.28635108241004
DIWATA-2B               
1 43678U 18084H   22133.78005438  .00000496  00000+0  54604-4 0  9996
2 43678  97.9640 266.6507 0010857  45.3221 314.8888 14.92097446192687
ES'HAIL 2               
1 43700U 18090A   22133.70949573  .00000156  00000+0  00000+0 0  9997
2 43700   0.0505  96.0850 0002609 344.9517  71.6138  1.00272149 12920
FOX-1CLIFF (AO-95)      
1 43770U 18099N   22133.14884054  .00002762  00000+0  24927-3 0  9996
2 43770  97.6233 200.4158 0015165  40.3190 319.9153 14.96241245187733
ITASAT 1                
1 43786U 18099AE  22133.41332304  .00002801  00000+0  25157-3 0  9999
2 43786  97.6259 201.5722 0015641  32.6314 327.5871 14.96416616187815
JY1SAT (JO-97)          
1 43803U 18099AX  22133.44219711  .00002833  00000+0  25159-3 0  9995
2 43803  97.6208 201.3475 0015098  29.8090 330.3989 14.96858017187836
UWE-4                   
1 43880U 18111E   22133.53385188  .00002977  00000+0  25719-3 0  9998
2 43880  97.6702  40.4549 0013184  79.5599 280.7108 14.97916889184475
NEXUS (FO-99)           
1 43937U 19003F   22133.57783499  .00011915  00000+0  41325-3 0  9996
2 43937  97.1338 168.3005 0018861 277.9587  81.9514 15.29776702184648
PSAT2 (NO-104)          
1 44354U 19036R   22133.86729334  .00057671 -56992-5  55832-3 0  9991
2 44354  28.5287  57.3052 0247365 302.1665  55.5162 15.34770485159346
JAISAT-1                
1 44419U 19038F   22133.47873410  .00008148  00000+0  41745-3 0  9992
2 44419  97.6330 103.3404 0017447 250.7376 109.1969 15.16723839157755
DUCHIFAT-3              
1 44854U 19089C   22133.78121014  .00003263  00000+0  25795-3 0  9991
2 44854  36.9677 305.8627 0009621 302.5656  57.4194 15.00805200132727
CAS-6 (TO-108)          
1 44881U 19093C   22133.80014063  .00000500  00000+0  70189-4 0  9993
2 44881  97.8922 213.5051 0013816 302.2176  57.7692 14.81679696129646
RS-44 & BREEZE-KM R/B   
1 44909U 19096E   22133.55676007 -.00000001  00000+0 -54125-4 0  9991
2 44909  82.5215 253.4543 0217963  41.5781 320.1667 12.79713155111044
ORBITAL FACTORY 2 (OF-2)
1 45113U 19071C   22133.68949343  .00025690  00000+0  56771-3 0  9999
2 45113  51.6391 230.2053 0010174  39.1739 320.9982 15.43623919128008
HUSKYSAT-1 (HO-107)     
1 45119U 19071J   22133.54721015  .00022385  00000+0  50819-3 0  9999
2 45119  51.6390 230.7330 0009956  36.3042 323.8618 15.42906108127974
BY70-2                  
1 45857U 20042B   22133.80080389  .00006024  00000+0  81627-3 0  9992
2 45857  97.9540 210.9830 0010099 218.6160 141.4333 14.79267124100330
SALSAT                  
1 46495U 20068K   22133.57714416  .00002997  00000+0  21887-3 0  9995
2 46495  97.7282  74.8749 0017614  40.0324 320.2196 15.04328818 88948
BY70-3                  
1 46839U 20079N   22133.77259760  .00018722  00000+0  46473-3 0  9998
2 46839  97.2001 206.3535 0007396 103.3659 350.9181 15.40364711 84907
RADFXSAT-2 (AO-109)     
1 47311U 21002C   22133.52294594  .00008277  00000+0  34283-3 0  9998
2 47311  60.6844 133.6833 0011385 292.7318  67.2566 15.24645190 73136
UVSQ-SAT                
1 47438U 21006AB  22133.41784545  .00006501  00000+0  34868-3 0  9997
2 47438  97.4403 193.1525 0012883  44.3289 315.8973 15.15229475 71974
DIY-1 (ARDUIQUBE)       
1 47963U 21022AH  22133.49189521  .00014909  00000+0  86163-3 0  9995
2 47963  97.5360  35.2800 0015003 251.2978 108.6625 15.12296780 61660
XW-3 (CAS-9)            
1 50466U 21131B   22133.81084758  .00000186  00000+0  75587-4 0  9991
2 50466  98.5807 211.0801 0003485 241.0998 118.9840 14.38481877 19930
